CCSDS_OMM_VERS = 2.0
CREATION_DATE  = 
ORIGINATOR     = 

OBJECT_NAME    = SL-14 R/B
OBJECT_ID      = 1986-046B
CENTER_NAME    = EARTH
REF_FRAME      = TEME
TIME_SYSTEM    = UTC
MEAN_ELEMENT_THEORY = SGP/SGP4

EPOCH          = 2026-03-08T12:39:42.963840
MEAN_MOTION    = 14.85589262
ECCENTRICITY   = .00218888
INCLINATION    = 82.4783
RA_OF_ASC_NODE = 81.2801
ARG_OF_PERICENTER = 229.4222
MEAN_ANOMALY   = 130.5090

EPHEMERIS_TYPE = 0
CLASSIFICATION_TYPE = U
NORAD_CAT_ID   = 16792
ELEMENT_SET_NO = 999
REV_AT_EPOCH   = 12623
BSTAR          = .70288635E-4
MEAN_MOTION_DOT = .634E-5
MEAN_MOTION_DDOT = 0

CCSDS_OMM_VERS = 2.0
CREATION_DATE  = 
ORIGINATOR     = 

OBJECT_NAME    = SL-14 R/B
OBJECT_ID      = 1986-055B
CENTER_NAME    = EARTH
REF_FRAME      = TEME
TIME_SYSTEM    = UTC
MEAN_ELEMENT_THEORY = SGP/SGP4

EPOCH          = 2026-03-08T14:24:30.301344
MEAN_MOTION    = 14.85641873
ECCENTRICITY   = .0018274
INCLINATION    = 82.5204
RA_OF_ASC_NODE = 127.6982
ARG_OF_PERICENTER = 340.2815
MEAN_ANOMALY   = 133.4140

EPHEMERIS_TYPE = 0
CLASSIFICATION_TYPE = U
NORAD_CAT_ID   = 16882
ELEMENT_SET_NO = 999
REV_AT_EPOCH   = 11920
BSTAR          = .6754221E-4
MEAN_MOTION_DOT = .61E-5
MEAN_MOTION_DDOT = 0

CCSDS_OMM_VERS = 2.0
CREATION_DATE  = 
ORIGINATOR     = 

OBJECT_NAME    = AJISAI (EGS)
OBJECT_ID      = 1986-061A
CENTER_NAME    = EARTH
REF_FRAME      = TEME
TIME_SYSTEM    = UTC
MEAN_ELEMENT_THEORY = SGP/SGP4

EPOCH          = 2026-03-08T14:17:11.080896
MEAN_MOTION    = 12.44515669
ECCENTRICITY   = .001126
INCLINATION    = 50.0080
RA_OF_ASC_NODE = 96.7133
ARG_OF_PERICENTER = 284.1826
MEAN_ANOMALY   = 163.4004

EPHEMERIS_TYPE = 0
CLASSIFICATION_TYPE = U
NORAD_CAT_ID   = 16908
ELEMENT_SET_NO = 999
REV_AT_EPOCH   = 46786
BSTAR          = -.11610067E-4
MEAN_MOTION_DOT = -.99E-6
MEAN_MOTION_DDOT = 0

CCSDS_OMM_VERS = 2.0
CREATION_DATE  = 
ORIGINATOR     = 

OBJECT_NAME    = SL-14 R/B
OBJECT_ID      = 1987-024B
CENTER_NAME    = EARTH
REF_FRAME      = TEME
TIME_SYSTEM    = UTC
MEAN_ELEMENT_THEORY = SGP/SGP4

EPOCH          = 2026-03-08T13:28:25.465440
MEAN_MOTION    = 14.86131102
ECCENTRICITY   = .00166758
INCLINATION    = 82.5248
RA_OF_ASC_NODE = 93.8245
ARG_OF_PERICENTER = 264.0307
MEAN_ANOMALY   = 95.9009

EPHEMERIS_TYPE = 0
CLASSIFICATION_TYPE = U
NORAD_CAT_ID   = 17567
ELEMENT_SET_NO = 999
REV_AT_EPOCH   = 8796
BSTAR          = .677601E-4
MEAN_MOTION_DOT = .619E-5
MEAN_MOTION_DDOT = 0

CCSDS_OMM_VERS = 2.0
CREATION_DATE  = 
ORIGINATOR     = 

OBJECT_NAME    = COSMOS 1833
OBJECT_ID      = 1987-027A
CENTER_NAME    = EARTH
REF_FRAME      = TEME
TIME_SYSTEM    = UTC
MEAN_ELEMENT_THEORY = SGP/SGP4

EPOCH          = 2026-03-08T15:45:52.090560
MEAN_MOTION    = 14.13055107
ECCENTRICITY   = .00243169
INCLINATION    = 70.9227
RA_OF_ASC_NODE = 328.1897
ARG_OF_PERICENTER = 215.9566
MEAN_ANOMALY   = 143.9920

EPHEMERIS_TYPE = 0
CLASSIFICATION_TYPE = U
NORAD_CAT_ID   = 17589
ELEMENT_SET_NO = 999
REV_AT_EPOCH   = 1017
BSTAR          = -.59514316E-4
MEAN_MOTION_DOT = -.16E-5
MEAN_MOTION_DDOT = 0

CCSDS_OMM_VERS = 2.0
CREATION_DATE  = 
ORIGINATOR     = 

OBJECT_NAME    = SL-16 R/B
OBJECT_ID      = 1987-027B
CENTER_NAME    = EARTH
REF_FRAME      = TEME
TIME_SYSTEM    = UTC
MEAN_ELEMENT_THEORY = SGP/SGP4

EPOCH          = 2026-03-08T15:12:16.034688
MEAN_MOTION    = 14.17165824
ECCENTRICITY   = .00035184
INCLINATION    = 71.0010
RA_OF_ASC_NODE = 278.7211
ARG_OF_PERICENTER = 144.9412
MEAN_ANOMALY   = 215.1944

EPHEMERIS_TYPE = 0
CLASSIFICATION_TYPE = U
NORAD_CAT_ID   = 17590
ELEMENT_SET_NO = 999
REV_AT_EPOCH   = 1519
BSTAR          = .36441473E-4
MEAN_MOTION_DOT = .26E-6
MEAN_MOTION_DDOT = 0

CCSDS_OMM_VERS = 2.0
CREATION_DATE  = 
ORIGINATOR     = 

OBJECT_NAME    = SL-14 R/B
OBJECT_ID      = 1987-038B
CENTER_NAME    = EARTH
REF_FRAME      = TEME
TIME_SYSTEM    = UTC
MEAN_ELEMENT_THEORY = SGP/SGP4

EPOCH          = 2026-03-08T14:57:21.479328
MEAN_MOTION    = 14.85368392
ECCENTRICITY   = .001959
INCLINATION    = 82.5003
RA_OF_ASC_NODE = 297.8127
ARG_OF_PERICENTER = 163.8423
MEAN_ANOMALY   = 196.3422

EPHEMERIS_TYPE = 0
CLASSIFICATION_TYPE = U
NORAD_CAT_ID   = 17912
ELEMENT_SET_NO = 999
REV_AT_EPOCH   = 7907
BSTAR          = .63178502E-4
MEAN_MOTION_DOT = .569E-5
MEAN_MOTION_DDOT = 0

CCSDS_OMM_VERS = 2.0
CREATION_DATE  = 
ORIGINATOR     = 

OBJECT_NAME    = COSMOS 1844
OBJECT_ID      = 1987-041A
CENTER_NAME    = EARTH
REF_FRAME      = TEME
TIME_SYSTEM    = UTC
MEAN_ELEMENT_THEORY = SGP/SGP4

EPOCH          = 2026-03-08T08:08:57.051744
MEAN_MOTION    = 14.14552570
ECCENTRICITY   = .00299485
INCLINATION    = 70.8998
RA_OF_ASC_NODE = 37.0223
ARG_OF_PERICENTER = 19.7404
MEAN_ANOMALY   = 340.4869

EPHEMERIS_TYPE = 0
CLASSIFICATION_TYPE = U
NORAD_CAT_ID   = 17973
ELEMENT_SET_NO = 999
REV_AT_EPOCH   = 339
BSTAR          = -.43117691E-4
MEAN_MOTION_DOT = -.132E-5
MEAN_MOTION_DDOT = 0

CCSDS_OMM_VERS = 2.0
CREATION_DATE  = 
ORIGINATOR     = 

OBJECT_NAME    = SL-14 R/B
OBJECT_ID      = 1987-055B
CENTER_NAME    = EARTH
REF_FRAME      = TEME
TIME_SYSTEM    = UTC
MEAN_ELEMENT_THEORY = SGP/SGP4

EPOCH          = 2026-03-08T06:19:27.903360
MEAN_MOTION    = 14.85627974
ECCENTRICITY   = .00212767
INCLINATION    = 82.5030
RA_OF_ASC_NODE = 350.3750
ARG_OF_PERICENTER = 22.4304
MEAN_ANOMALY   = 337.7837

EPHEMERIS_TYPE = 0
CLASSIFICATION_TYPE = U
NORAD_CAT_ID   = 18153
ELEMENT_SET_NO = 999
REV_AT_EPOCH   = 6972
BSTAR          = .92715143E-4
MEAN_MOTION_DOT = .83E-5
MEAN_MOTION_DDOT = 0

CCSDS_OMM_VERS = 2.0
CREATION_DATE  = 
ORIGINATOR     = 

OBJECT_NAME    = COSMOS 1867
OBJECT_ID      = 1987-060A
CENTER_NAME    = EARTH
REF_FRAME      = TEME
TIME_SYSTEM    = UTC
MEAN_ELEMENT_THEORY = SGP/SGP4

EPOCH          = 2026-03-08T09:26:25.257696
MEAN_MOTION    = 14.31502852
ECCENTRICITY   = .00144743
INCLINATION    = 65.0115
RA_OF_ASC_NODE = 310.3360
ARG_OF_PERICENTER = 278.5967
MEAN_ANOMALY   = 81.3477

EPHEMERIS_TYPE = 0
CLASSIFICATION_TYPE = U
NORAD_CAT_ID   = 18187
ELEMENT_SET_NO = 999
REV_AT_EPOCH   = 1975
BSTAR          = .36845656E-4
MEAN_MOTION_DOT = -.2E-7
MEAN_MOTION_DDOT = 0

CCSDS_OMM_VERS = 2.0
CREATION_DATE  = 
ORIGINATOR     = 

OBJECT_NAME    = SL-14 R/B
OBJECT_ID      = 1988-001B
CENTER_NAME    = EARTH
REF_FRAME      = TEME
TIME_SYSTEM    = UTC
MEAN_ELEMENT_THEORY = SGP/SGP4

EPOCH          = 2026-03-08T11:03:32.612832
MEAN_MOTION    = 14.85526614
ECCENTRICITY   = .0016778
INCLINATION    = 82.5151
RA_OF_ASC_NODE = 196.5155
ARG_OF_PERICENTER = 240.0957
MEAN_ANOMALY   = 119.8594

EPHEMERIS_TYPE = 0
CLASSIFICATION_TYPE = U
NORAD_CAT_ID   = 18749
ELEMENT_SET_NO = 999
REV_AT_EPOCH   = 4184
BSTAR          = .95922682E-4
MEAN_MOTION_DOT = .854E-5
MEAN_MOTION_DDOT = 0

CCSDS_OMM_VERS = 2.0
CREATION_DATE  = 
ORIGINATOR     = 

OBJECT_NAME    = COSMOS 1933
OBJECT_ID      = 1988-020A
CENTER_NAME    = EARTH
REF_FRAME      = TEME
TIME_SYSTEM    = UTC
MEAN_ELEMENT_THEORY = SGP/SGP4

EPOCH          = 2026-03-08T14:29:08.668320
MEAN_MOTION    = 15.17970973
ECCENTRICITY   = .00037417
INCLINATION    = 82.5098
RA_OF_ASC_NODE = 251.9863
ARG_OF_PERICENTER = 184.3261
MEAN_ANOMALY   = 175.7941

EPHEMERIS_TYPE = 0
CLASSIFICATION_TYPE = U
NORAD_CAT_ID   = 18958
ELEMENT_SET_NO = 999
REV_AT_EPOCH   = 5006
BSTAR          = .29882463E-3
MEAN_MOTION_DOT = .6099E-4
MEAN_MOTION_DDOT = 0

