SL-14 R/B               
1 16792U 86046B   26067.52758060  .00000634  00000+0  70289-4 0  9995
2 16792  82.4783  81.2801 0021888 229.4222 130.5090 14.85589262126231
SL-14 R/B               
1 16882U 86055B   26067.60035071  .00000610  00000+0  67542-4 0  9996
2 16882  82.5204 127.6982 0018274 340.2815 133.4140 14.85641873119204
AJISAI (EGS)            
1 16908U 86061A   26067.59526714 -.00000099  00000+0 -11610-4 0  9997
2 16908  50.0080  96.7133 0011260 284.1826 163.4004 12.44515669467861
SL-14 R/B               
1 17567U 87024B   26067.56140585  .00000619  00000+0  67760-4 0  9997
2 17567  82.5248  93.8245 0016675 264.0307  95.9009 14.86131102 87964
COSMOS 1833             
1 17589U 87027A   26067.65685290 -.00000160  00000+0 -59514-4 0  9992
2 17589  70.9227 328.1897 0024316 215.9566 143.9920 14.13055107 10171
SL-16 R/B               
1 17590U 87027B   26067.63351892  .00000026  00000+0  36441-4 0  9993
2 17590  71.0010 278.7211 0003518 144.9412 215.1944 14.17165824 15194
SL-14 R/B               
1 17912U 87038B   26067.62316527  .00000569  00000+0  63179-4 0  9998
2 17912  82.5003 297.8127 0019590 163.8423 196.3422 14.85368392 79076
COSMOS 1844             
1 17973U 87041A   26067.33954921 -.00000132  00000+0 -43118-4 0  9992
2 17973  70.8998  37.0223 0029948  19.7404 340.4869 14.14552570  3397
SL-14 R/B               
1 18153U 87055B   26067.26351740  .00000830  00000+0  92715-4 0  9990
2 18153  82.5030 350.3750 0021276  22.4304 337.7837 14.85627974 69729
COSMOS 1867             
1 18187U 87060A   26067.39334789 -.00000002  00000+0  36846-4 0  9996
2 18187  65.0115 310.3360 0014474 278.5967  81.3477 14.31502852 19758
SL-14 R/B               
1 18749U 88001B   26067.46079413  .00000854  00000+0  95923-4 0  9999
2 18749  82.5151 196.5155 0016778 240.0957 119.8594 14.85526614 41847
COSMOS 1933             
1 18958U 88020A   26067.60357255  .00006099  00000+0  29882-3 0  9998
2 18958  82.5098 251.9863 0003741 184.3261 175.7941 15.17970973 50063
